OBJECT_NAME,OBJECT_ID,EPOCH,MEAN_MOTION,ECCENTRICITY,INCLINATION,RA_OF_ASC_NODE,ARG_OF_PERICENTER,MEAN_ANOMALY,EPHEMERIS_TYPE,CLASSIFICATION_TYPE,NORAD_CAT_ID,ELEMENT_SET_NO,REV_AT_EPOCH,BSTAR,MEAN_MOTION_DOT,MEAN_MOTION_DDOT
ORBCOMM FM06,1997-084G,2026-06-06T03:50:28.522176,14.47535380,.00020157,45.0131,105.7957,297.5381,76.6827,0,U,25118,999,49279,.45359035E-3,.1539E-4,0
ORBCOMM FM04,1998-007C,2026-06-05T21:33:23.630688,14.35720390,.0040972,107.9626,146.1854,344.2317,15.7545,0,U,25159,999,47497,.42338218E-3,.1104E-4,0
ORBCOMM FM19,1998-046C,2026-06-06T03:17:18.006144,14.39478857,.00041456,44.9944,296.0858,237.6207,292.1168,0,U,25415,999,45518,.40085325E-3,.1118E-4,0
ORBCOMM FM20,1998-046D,2026-06-06T02:32:43.130400,14.38051622,.0001519,44.9949,304.0335,212.7574,147.3180,0,U,25416,999,45519,.3135942E-3,.816E-5,0
ORBCOMM FM27,1998-053G,2026-06-05T07:36:18.412128,14.39118024,.00003563,45.0066,31.7321,22.4245,337.6619,0,U,25481,999,44852,.3657413E-3,.999E-5,0
ORBCOMM FM32,1999-065C,2026-06-05T11:20:40.044480,14.37116040,.00052799,45.0146,228.6893,336.7137,23.3472,0,U,25982,999,38540,.24752741E-3,.6E-5,0
ORBCOMM FM109,2014-040A,2026-06-05T15:51:36.555264,14.58830530,.0001543,47.0015,145.9819,212.1666,147.9126,0,U,40086,999,63266,.14729782E-3,.525E-5,0
ORBCOMM FM114,2015-081A,2026-06-01T23:30:56.809152,14.58838571,.00015469,47.0052,73.9009,135.7645,224.3365,0,U,41179,999,55553,.16355792E-3,.602E-5,0
ORBCOMM FM110,2015-081D,2026-06-02T23:53:49.713792,14.58854978,.00032303,47.0024,68.5419,358.8742,1.2136,0,U,41182,999,55555,.19639955E-3,.757E-5,0
ORBCOMM FM118,2015-081E,2026-06-02T00:03:48.794112,14.58855670,.00036016,47.0044,73.5648,319.9456,40.1164,0,U,41183,999,55551,.77410128E-3,.349E-4,0
ORBCOMM FM112,2015-081F,2026-06-05T03:47:17.285280,14.58885738,.00029346,47.0001,327.1297,162.7897,197.3089,0,U,41184,999,55719,.19041085E-3,.729E-5,0
ORBCOMM FM113,2015-081G,2026-06-05T04:51:43.729344,14.58845078,.0001524,47.0019,327.2885,173.9999,186.0905,0,U,41185,999,55718,.15023E-3,.539E-5,0
ORBCOMM FM108,2015-081J,2026-06-05T12:10:49.508544,14.58857926,.00023101,47.0046,237.4186,171.2053,188.8874,0,U,41187,999,55837,.18440415E-3,.7E-5,0
ORBCOMM FM117,2015-081K,2026-06-05T22:51:28.239552,14.58855403,.00028643,47.0008,233.9523,175.5307,184.5605,0,U,41188,999,55848,.18110488E-3,.685E-5,0
ORBCOMM FM116,2015-081L,2026-06-06T03:19:19.706592,14.58866650,.00012413,47.0034,322.8622,356.9601,3.1277,0,U,41189,999,55732,.21194763E-3,.831E-5,0
